[{"OBJECT_NAME":"KUIPER-00076","OBJECT_ID":"2025-151H","EPOCH":"2026-03-09T19:47:59.739936","MEAN_MOTION":14.80522013,"ECCENTRICITY":7.688e-5,"INCLINATION":51.9006,"RA_OF_ASC_NODE":292.379,"ARG_OF_PERICENTER":25.0802,"MEAN_ANOMALY":335.0198,"EPHEMERIS_TYPE":0,"CLASSIFICATION_TYPE":"U","NORAD_CAT_ID":64823,"ELEMENT_SET_NO":999,"REV_AT_EPOCH":3543,"BSTAR":0.00061277235,"MEAN_MOTION_DOT":4.518e-5,"MEAN_MOTION_DDOT":0},{"OBJECT_NAME":"CSG-3","OBJECT_ID":"2026-001A","EPOCH":"2026-03-09T23:00:18.057312","MEAN_MOTION":14.82149464,"ECCENTRICITY":0.00014236,"INCLINATION":97.8867,"RA_OF_ASC_NODE":253.9922,"ARG_OF_PERICENTER":86.9093,"MEAN_ANOMALY":273.2283,"EPHEMERIS_TYPE":0,"CLASSIFICATION_TYPE":"U","NORAD_CAT_ID":67304,"ELEMENT_SET_NO":999,"REV_AT_EPOCH":976,"BSTAR":8.0107311e-5,"MEAN_MOTION_DOT":5.85e-6,"MEAN_MOTION_DDOT":0}]
